start=new Date('2021-09-09T00:00:00.000Z').valueOf();
sats=[{"MEAN_ELEMENT_THEORY":"SGP4","DECAY_DATE":null,"NORAD_CAT_ID":"48022","APOAPSIS":"548.750","COUNTRY_CODE":"US","ECCENTRICITY":"0.00021740","GP_ID":"184347833","OBJECT_ID":"2021-024AX","MEAN_ANOMALY":"155.4283","MEAN_MOTION":"15.06389801","LAUNCH_DATE":"2021-03-24","CLASSIFICATION_TYPE":"U","SEMIMAJOR_AXIS":"6925.380","REV_AT_EPOCH":"357","MEAN_MOTION_DDOT":"0.0000000000000","SITE":"AFETR","TLE_LINE2":"2 48022  53.0545 145.9427 0002174  73.7175 155.4283 15.06389801  3570","MEAN_MOTION_DOT":"-0.00004929","PERIAPSIS":"545.739","OBJECT_TYPE":"PAYLOAD","OBJECT_NAME":"STARLINK-2298","EPOCH":"2021-09-09T00:00:02.000160","TIME_SYSTEM":"UTC","EPHEMERIS_TYPE":"0","RCS_SIZE":"LARGE","TLE_LINE1":"1 48022U 21024AX  21252.00002315 -.00004929  00000-0 -31226-3 0  9991","BSTAR":"-0.00031226000000","ARG_OF_PERICENTER":"73.7175","FILE":"3111252","CENTER_NAME":"EARTH","RA_OF_ASC_NODE":"145.9427","INCLINATION":"53.0545","ELEMENT_SET_NO":"999","PERIOD":"95.593","REF_FRAME":"TEME"},{"LAUNCH_DATE":"2021-03-24","MEAN_ANOMALY":"73.3722","MEAN_MOTION":"15.06401776","ECCENTRICITY":"0.00019170","GP_ID":"184349085","OBJECT_ID":"2021-024AY","MEAN_ELEMENT_THEORY":"SGP4","DECAY_DATE":null,"APOAPSIS":"548.536","NORAD_CAT_ID":"48023","COUNTRY_CODE":"US","PERIAPSIS":"545.881","OBJECT_TYPE":"PAYLOAD","MEAN_MOTION_DDOT":"0.0000000000000","TLE_LINE2":"2 48023  53.0533 145.9294 0001917  70.6300  73.3722 15.06401776  3606","MEAN_MOTION_DOT":"-0.00009305","SITE":"AFETR","CLASSIFICATION_TYPE":"U","SEMIMAJOR_AXIS":"6925.343","REV_AT_EPOCH":"360","TLE_LINE1":"1 48023U 21024AY  21252.00002315 -.00009305  00000-0 -60652-3 0  9990","RCS_SIZE":"LARGE","BSTAR":"-0.00060652000000","EPHEMERIS_TYPE":"0","OBJECT_NAME":"STARLINK-2292","EPOCH":"2021-09-09T00:00:02.000160","TIME_SYSTEM":"UTC","REF_FRAME":"TEME","INCLINATION":"53.0533","ELEMENT_SET_NO":"999","PERIOD":"95.592","RA_OF_ASC_NODE":"145.9294","CENTER_NAME":"EARTH","ARG_OF_PERICENTER":"70.6300","FILE":"3111252"},{"TLE_LINE1":"1 48024U 21024AZ  21252.00002315  .00022970  00000-0  16751-3 0  9993","BSTAR":"0.00016751000000","RCS_SIZE":"LARGE","EPHEMERIS_TYPE":"0","TIME_SYSTEM":"UTC","EPOCH":"2021-09-09T00:00:02.000160","OBJECT_NAME":"STARLINK-2302","REF_FRAME":"TEME","PERIOD":"91.533","ELEMENT_SET_NO":"999","INCLINATION":"53.0443","CENTER_NAME":"EARTH","RA_OF_ASC_NODE":"86.3375","FILE":"3111252","ARG_OF_PERICENTER":"2.8820","LAUNCH_DATE":"2021-03-24","MEAN_MOTION":"15.73206702","MEAN_ANOMALY":"212.5103","OBJECT_ID":"2021-024AZ","ECCENTRICITY":"0.00043220","GP_ID":"184348835","COUNTRY_CODE":"US","NORAD_CAT_ID":"48024","APOAPSIS":"352.649","MEAN_ELEMENT_THEORY":"SGP4","DECAY_DATE":null,"OBJECT_TYPE":"PAYLOAD","PERIAPSIS":"346.833","SITE":"AFETR","TLE_LINE2":"2 48024  53.0443  86.3375 0004322   2.8820 212.5103 15.73206702  3675","MEAN_MOTION_DOT":"0.00022970","MEAN_MOTION_DDOT":"0.0000000000000","REV_AT_EPOCH":"367","CLASSIFICATION_TYPE":"U","SEMIMAJOR_AXIS":"6727.876"},{"COUNTRY_CODE":"US","MEAN_ELEMENT_THEORY":"SGP4","DECAY_DATE":null,"NORAD_CAT_ID":"48025","APOAPSIS":"352.547","OBJECT_ID":"2021-024BA","ECCENTRICITY":"0.00041870","GP_ID":"184348084","MEAN_MOTION":"15.73210425","MEAN_ANOMALY":"214.9713","LAUNCH_DATE":"2021-03-24","CLASSIFICATION_TYPE":"U","SEMIMAJOR_AXIS":"6727.865","REV_AT_EPOCH":"370","MEAN_MOTION_DDOT":"0.0000000000000","MEAN_MOTION_DOT":"0.00016265","TLE_LINE2":"2 48025  53.0441  86.3321 0004187   1.0679 214.9713 15.73210425  3701","SITE":"AFETR","OBJECT_TYPE":"PAYLOAD","PERIAPSIS":"346.913","TIME_SYSTEM":"UTC","OBJECT_NAME":"STARLINK-2318","EPOCH":"2021-09-09T00:00:02.000160","EPHEMERIS_TYPE":"0","TLE_LINE1":"1 48025U 21024BA  21252.00002315  .00016265  00000-0  11999-3 0  9993","RCS_SIZE":"LARGE","BSTAR":"0.00011999000000","ARG_OF_PERICENTER":"1.0679","FILE":"3111252","RA_OF_ASC_NODE":"86.3321","CENTER_NAME":"EARTH","ELEMENT_SET_NO":"999","PERIOD":"91.533","INCLINATION":"53.0441","REF_FRAME":"TEME"},{"REF_FRAME":"TEME","INCLINATION":"53.0507","PERIOD":"95.695","ELEMENT_SET_NO":"999","RA_OF_ASC_NODE":"151.0272","CENTER_NAME":"EARTH","FILE":"3111252","ARG_OF_PERICENTER":"67.7271","TLE_LINE1":"1 48026U 21024BB  21252.00002315 -.00013238  00000-0 -91047-3 0  9995","BSTAR":"-0.00091047000000","RCS_SIZE":"LARGE","EPHEMERIS_TYPE":"0","EPOCH":"2021-09-09T00:00:02.000160","OBJECT_NAME":"STARLINK-2278","TIME_SYSTEM":"UTC","PERIAPSIS":"550.513","OBJECT_TYPE":"PAYLOAD","TLE_LINE2":"2 48026  53.0507 151.0272 0002402  67.7271 282.5056 15.04781706  3592","SITE":"AFETR","MEAN_MOTION_DOT":"-0.00013238","MEAN_MOTION_DDOT":"0.0000000000000","REV_AT_EPOCH":"359","SEMIMAJOR_AXIS":"6930.313","CLASSIFICATION_TYPE":"U","LAUNCH_DATE":"2021-03-24","MEAN_ANOMALY":"282.5056","MEAN_MOTION":"15.04781706","GP_ID":"184348334","ECCENTRICITY":"0.00024020","OBJECT_ID":"2021-024BB","APOAPSIS":"553.843","NORAD_CAT_ID":"48026","DECAY_DATE":null,"MEAN_ELEMENT_THEORY":"SGP4","COUNTRY_CODE":"US"},{"BSTAR":"0.00074214000000","TLE_LINE1":"1 48027U 21024BC  21252.00002315  .00010789  00000-0  74214-3 0  9999","RCS_SIZE":"LARGE","EPHEMERIS_TYPE":"0","OBJECT_NAME":"STARLINK-2300","EPOCH":"2021-09-09T00:00:02.000160","TIME_SYSTEM":"UTC","REF_FRAME":"TEME","INCLINATION":"53.0531","ELEMENT_SET_NO":"999","PERIOD":"95.592","RA_OF_ASC_NODE":"125.9333","CENTER_NAME":"EARTH","ARG_OF_PERICENTER":"67.3058","FILE":"3111252","LAUNCH_DATE":"2021-03-24","MEAN_ANOMALY":"46.7510","MEAN_MOTION":"15.06396347","ECCENTRICITY":"0.00019760","GP_ID":"184348585","OBJECT_ID":"2021-024BC","DECAY_DATE":null,"MEAN_ELEMENT_THEORY":"SGP4","NORAD_CAT_ID":"48027","APOAPSIS":"548.593","COUNTRY_CODE":"US","PERIAPSIS":"545.856","OBJECT_TYPE":"PAYLOAD","MEAN_MOTION_DDOT":"0.0000000000000","SITE":"AFETR","TLE_LINE2":"2 48027  53.0531 125.9333 0001976  67.3058  46.7510 15.06396347  3570","MEAN_MOTION_DOT":"0.00010789","CLASSIFICATION_TYPE":"U","SEMIMAJOR_AXIS":"6925.360","REV_AT_EPOCH":"357"},{"GP_ID":"184349336","ECCENTRICITY":"0.00013950","OBJECT_ID":"2021-024BD","MEAN_ELEMENT_THEORY":"SGP4","DECAY_DATE":null,"APOAPSIS":"381.131","NORAD_CAT_ID":"48028","COUNTRY_CODE":"US","LAUNCH_DATE":"2021-03-24","MEAN_ANOMALY":"70.1602","MEAN_MOTION":"15.62587318","SEMIMAJOR_AXIS":"6758.324","CLASSIFICATION_TYPE":"U","REV_AT_EPOCH":"370","PERIAPSIS":"379.246","OBJECT_TYPE":"PAYLOAD","MEAN_MOTION_DDOT":"0.0000000000000","MEAN_MOTION_DOT":"-0.00950314","TLE_LINE2":"2 48028  53.0456  86.5039 0001395  49.1358  70.1602 15.62587318  3708","SITE":"AFETR","OBJECT_NAME":"STARLINK-2264","EPOCH":"2021-09-09T00:00:02.000160","TIME_SYSTEM":"UTC","TLE_LINE1":"1 48028U 21024BD  21252.00002315 -.00950314  00000-0 -11524-1 0  9992","RCS_SIZE":"LARGE","BSTAR":"-0.01152400000000","EPHEMERIS_TYPE":"0","CENTER_NAME":"EARTH","RA_OF_ASC_NODE":"86.5039","ARG_OF_PERICENTER":"49.1358","FILE":"3111252","REF_FRAME":"TEME","INCLINATION":"53.0456","ELEMENT_SET_NO":"999","PERIOD":"92.155"},{"REF_FRAME":"TEME","ELEMENT_SET_NO":"999","PERIOD":"95.592","INCLINATION":"53.0547","CENTER_NAME":"EARTH","RA_OF_ASC_NODE":"145.9402","ARG_OF_PERICENTER":"68.1764","FILE":"3111252","BSTAR":"-0.00042984000000","TLE_LINE1":"1 48029U 21024BE  21252.00002315 -.00006680  00000-0 -42984-3 0  9997","RCS_SIZE":"LARGE","EPHEMERIS_TYPE":"0","TIME_SYSTEM":"UTC","OBJECT_NAME":"STARLINK-2299","EPOCH":"2021-09-09T00:00:02.000160","OBJECT_TYPE":"PAYLOAD","PERIAPSIS":"545.641","MEAN_MOTION_DDOT":"0.0000000000000","SITE":"AFETR","TLE_LINE2":"2 48029  53.0547 145.9402 0002237  68.1764 195.9171 15.06407667  3570","MEAN_MOTION_DOT":"-0.00006680","SEMIMAJOR_AXIS":"6925.325","CLASSIFICATION_TYPE":"U","REV_AT_EPOCH":"357","LAUNCH_DATE":"2021-03-24","MEAN_MOTION":"15.06407667","MEAN_ANOMALY":"195.9171","OBJECT_ID":"2021-024BE","GP_ID":"184347584","ECCENTRICITY":"0.00022370","COUNTRY_CODE":"US","DECAY_DATE":null,"MEAN_ELEMENT_THEORY":"SGP4","NORAD_CAT_ID":"48029","APOAPSIS":"548.739"},{"OBJECT_NAME":"STARLINK-2268","EPOCH":"2021-09-09T00:00:02.000160","TIME_SYSTEM":"UTC","TLE_LINE1":"1 48030U 21024BF  21252.00002315 -.00014825  00000-0 -97847-3 0  9997","RCS_SIZE":"LARGE","BSTAR":"-0.00097847000000","EPHEMERIS_TYPE":"0","CENTER_NAME":"EARTH","RA_OF_ASC_NODE":"150.9289","ARG_OF_PERICENTER":"80.4446","FILE":"3111252","REF_FRAME":"TEME","INCLINATION":"53.0527","ELEMENT_SET_NO":"999","PERIOD":"95.592","GP_ID":"184347834","ECCENTRICITY":"0.00018430","OBJECT_ID":"2021-024BF","MEAN_ELEMENT_THEORY":"SGP4","DECAY_DATE":null,"NORAD_CAT_ID":"48030","APOAPSIS":"548.502","COUNTRY_CODE":"US","LAUNCH_DATE":"2021-03-24","MEAN_ANOMALY":"36.1093","MEAN_MOTION":"15.06396040","CLASSIFICATION_TYPE":"U","SEMIMAJOR_AXIS":"6925.361","REV_AT_EPOCH":"360","PERIAPSIS":"545.949","OBJECT_TYPE":"PAYLOAD","MEAN_MOTION_DDOT":"0.0000000000000","MEAN_MOTION_DOT":"-0.00014825","TLE_LINE2":"2 48030  53.0527 150.9289 0001843  80.4446  36.1093 15.06396040  3600","SITE":"AFETR"},{"APOAPSIS":"352.682","NORAD_CAT_ID":"48031","DECAY_DATE":null,"MEAN_ELEMENT_THEORY":"SGP4","COUNTRY_CODE":"US","ECCENTRICITY":"0.00041850","GP_ID":"184349086","OBJECT_ID":"2021-024BG","MEAN_ANOMALY":"215.8406","MEAN_MOTION":"15.73162875","LAUNCH_DATE":"2021-03-24","REV_AT_EPOCH":"370","CLASSIFICATION_TYPE":"U","SEMIMAJOR_AXIS":"6728.001","TLE_LINE2":"2 48031  53.0441  86.3250 0004185   4.0092 215.8406 15.73162875  3703","SITE":"AFETR","MEAN_MOTION_DOT":"0.00091584","MEAN_MOTION_DDOT":"0.0000000000000","PERIAPSIS":"347.050","OBJECT_TYPE":"PAYLOAD","EPOCH":"2021-09-09T00:00:02.000160","OBJECT_NAME":"STARLINK-2267","TIME_SYSTEM":"UTC","EPHEMERIS_TYPE":"0","TLE_LINE1":"1 48031U 21024BG  21252.00002315  .00091584  00000-0  65055-3 0  9999","BSTAR":"0.00065055000000","RCS_SIZE":"LARGE","FILE":"3111252","ARG_OF_PERICENTER":"4.0092","RA_OF_ASC_NODE":"86.3250","CENTER_NAME":"EARTH","INCLINATION":"53.0441","PERIOD":"91.535","ELEMENT_SET_NO":"999","REF_FRAME":"TEME"}];
